[{"OBJECT_NAME":"ONEWEB-0639","OBJECT_ID":"2023-029H","EPOCH":"2026-03-09T17:05:09.750624","MEAN_MOTION":13.19724682,"ECCENTRICITY":0.00022777,"INCLINATION":87.9226,"RA_OF_ASC_NODE":324.7977,"ARG_OF_PERICENTER":105.3247,"MEAN_ANOMALY":254.8138,"EPHEMERIS_TYPE":0,"CLASSIFICATION_TYPE":"U","NORAD_CAT_ID":55803,"ELEMENT_SET_NO":999,"REV_AT_EPOCH":14578,"BSTAR":0.00027256917,"MEAN_MOTION_DOT":1.22e-6,"MEAN_MOTION_DDOT":0},{"OBJECT_NAME":"SL-14 DEB","OBJECT_ID":"1991-056AZ","EPOCH":"2026-03-09T07:52:17.853888","MEAN_MOTION":13.18825935,"ECCENTRICITY":0.00163947,"INCLINATION":82.5512,"RA_OF_ASC_NODE":204.5375,"ARG_OF_PERICENTER":357.9962,"MEAN_ANOMALY":2.1093,"EPHEMERIS_TYPE":0,"CLASSIFICATION_TYPE":"U","NORAD_CAT_ID":45311,"ELEMENT_SET_NO":999,"REV_AT_EPOCH":29044,"BSTAR":0.00032109184,"MEAN_MOTION_DOT":1.39e-6,"MEAN_MOTION_DDOT":0}]
